COSMOS 1933             
1 18958U 88020A   26057.51755014  .00004086  00000+0  20035-3 0  9997
2 18958  82.5100 261.9675 0002895 225.7635 134.3361 15.17865947 48533
SL-3 R/B                
1 19046U 88032B   26057.53995394  .00005856  00000+0  27505-3 0  9993
2 19046  97.5173  40.8333 0024076 273.4578  86.3903 15.19752788 50412
SL-16 R/B               
1 19120U 88039B   26057.56535344  .00000115  00000+0  77145-4 0  9990
2 19120  71.0130  92.0725 0022093 350.8999   9.1722 14.19614044956804
COSMOS 1953             
1 19210U 88050A   26057.36480710  .00008847  00000+0  31931-3 0  9999
2 19210  82.5104 169.6315 0011963 159.6203 200.5516 15.28284603 36054
SL-8 R/B                
1 19257U 88053B   26057.54044736  .00000219  00000+0  79369-4 0  9990
2 19257  74.0477 133.0170 0021110 314.0085 148.2780 14.38908080974995
COSMOS 1975             
1 19573U 88093A   26057.26431524  .00008710  00000+0  31850-3 0  9995
2 19573  82.5207 129.1516 0011152 203.4738 156.5994 15.27863640 17664
SL-14 R/B               
1 19574U 88093B   26057.49221341  .00000535  00000+0  58662-4 0  9993
2 19574  82.5284  52.5569 0022306  76.2954  40.7041 14.85640429999371
SL-16 R/B               
1 19650U 88102B   26057.53268765 -.00000255  00000+0 -10456-3 0  9994
2 19650  71.0004 174.9704 0013278  18.5866 341.5739 14.16150324925311
INTERCOSMOS 24          
1 20261U 89080A   26057.52370477  .00000596  00000+0  17604-3 0  9991
2 20261  82.6041 111.6749 1187004 318.7627  32.9418 12.59538320665392
SL-14 R/B               
1 20262U 89080C   26057.59311253  .00000620  00000+0  18472-3 0  9998
2 20262  82.5970 180.3078 1230125 210.1107 142.3430 12.50476890658769
DELTA 1 R/B             
1 20323U 89089B   26057.51563089  .00000338  00000+0  92089-4 0  9996
2 20323  97.0712 266.7311 0069709 156.8364 203.6003 14.50652330894114
ARIANE 40 R/B           
1 20443U 90005H   26057.55593959  .00000247  00000+0  92175-4 0  9997
2 20443  98.3109 118.5479 0009192 233.6451 126.3890 14.39861918891204
